[
  "TORO                    \r\n1 60530U 24149BQ  26180.14204936  .00002094  00000+0  18956-3 0  9996\r\n2 60530  97.6782 254.5867 0001201  96.6413 263.4945 14.96462248101747\r\n",
  "TORO3                   \r\n1 68481U 26067BT  26180.43828334  .00000867  00000+0  90764-4 0  9990\r\n2 68481  97.7676 138.6223 0001289 283.4844  76.6231 14.92147687 13557\r\n",
  "SATORO-T3               \r\n1 64589U 25135BP  26180.55019543  .00001760  00000+0  16885-3 0  9991\r\n2 64589  97.7728 294.9511 0003470 299.8370  60.2505 14.94382319 55751\r\n",
  "GEMINI-POLLUX           \r\n1 69000U 26100W   26180.53310661  .00002125  00000+0  21367-3 0  9997\r\n2 69000  97.7312  77.7769 0001381 118.7909 241.3449 14.92271454  8540\r\n",
  "FORMOSAT-2 (ROCSAT 2)   \r\n1 28254U 04018A   26180.54150308 -.00000223  00000+0 -11997-3 0  9995\r\n2 28254  98.8458 147.6454 0000860 323.7278 146.3559 14.01258067130485\r\n",
  "FORMOSAT-3 FM6          \r\n1 29047U 06011A   26180.54196303  .00000420  00000+0  17188-3 0  9991\r\n2 29047  71.9781 286.0246 0049336 218.0413 141.7238 14.31407620 56172\r\n",
  "FORMOSAT-3 FM1          \r\n1 29048U 06011B   26180.46597208  .00000345  00000+0  14426-3 0  9990\r\n2 29048  71.9641 194.5850 0042142 181.8475 178.2515 14.31398341 58539\r\n",
  "FORMOSAT-3 FM5          \r\n1 29049U 06011C   26180.51607172  .00000375  00000+0  15590-3 0  9995\r\n2 29049  72.0188  18.6818 0034062 188.1412 171.9178 14.31413095 54435\r\n",
  "FORMOSAT-3 FM3          \r\n1 29050U 06011D   26180.52754819  .00001097  00000+0  20210-3 0  9996\r\n2 29050  72.0140 285.5729 0044977 263.0800  96.5239 14.66983791 78182\r\n",
  "FORMOSAT-3 FM4          \r\n1 29051U 06011E   26180.54506560  .00000421  00000+0  16970-3 0  9995\r\n2 29051  72.0044 276.1452 0064341  68.5261 292.2722 14.31549430 57034\r\n",
  "FORMOSAT-3 FM2          \r\n1 29052U 06011F   26180.54327692  .00000424  00000+0  17315-3 0  9990\r\n2 29052  72.0330 357.0048 0037913 140.7326 219.6574 14.31626907 54550\r\n",
  "PACE                    \r\n1 40022U 14033N   26180.51415185  .00004584  00000+0  27917-3 0  9995\r\n2 40022  98.1228 186.1417 0006747 162.8959 197.2498 15.10934387654895\r\n",
  "FORMOSAT-5              \r\n1 42920U 17049A   26180.46627977  .00000156  00000+0  50658-4 0  9992\r\n2 42920  98.2253 255.5032 0012304  50.1061 310.1213 14.50903079468459\r\n",
  "FORMOSAT 7-3            \r\n1 44343U 19036E   26179.88122996  .00004227  00000+0  23346-3 0  9992\r\n2 44343  23.9987  98.0469 0000982  67.5934 292.4674 15.09876742385017\r\n",
  "FORMOSAT 7-1            \r\n1 44349U 19036L   26180.51542069  .00002632  00000+0  19983-3 0  9997\r\n2 44349  23.9991 309.2800 0000645 357.0154   3.0343 14.96558196386500\r\n",
  "FORMOSAT 7-4            \r\n1 44350U 19036M   26180.53796324  .00002731  00000+0  20838-3 0  9997\r\n2 44350  23.9998  11.2321 0001051 352.9306   7.1179 14.96549914385927\r\n",
  "FORMOSAT 7-2            \r\n1 44351U 19036N   26179.96022799  .00002572  00000+0  19479-3 0  9993\r\n2 44351  23.9992  69.4409 0000469 356.4775   3.5723 14.96544868385350\r\n",
  "FORMOSAT 7-6            \r\n1 44353U 19036Q   26180.49328068  .00002361  00000+0  17657-3 0  9995\r\n2 44353  23.9969 246.6650 0000773 230.2460 129.7972 14.96559400383668\r\n",
  "FORMOSAT 7-5            \r\n1 44358U 19036V   26179.33702998  .00002326  00000+0  17363-3 0  9994\r\n2 44358  23.9968 193.2086 0000147  38.9613 321.0899 14.96557205384027\r\n",
  "FORMOSAT-7R (TRITON)    \r\n1 58017U 23155B   26179.71418268  .00001635  00000+0  17044-3 0  9992\r\n2 58017  97.8356 261.0271 0002356  72.9048 287.2429 14.91150057147948\r\n",
  "NIGHTJAR                \r\n1 60535U 24149BV  26180.14056067  .00002998  00000+0  25179-3 0  9999\r\n2 60535  97.6831 256.6795 0001094 117.4341 242.6993 14.99076671144666\r\n",
  "IRIS-F3                 \r\n1 62619U 25009L   26179.71886616  .00005935  00000+0  22545-3 0  9990\r\n2 62619  97.4052 260.4699 0004779 283.3922  76.6784 15.27181142 80586\r\n",
  "IRIS-F2                 \r\n1 62684U 25009CD  26180.45616531  .00012896  00000+0  48920-3 0  9991\r\n2 62684  97.3896 260.1093 0003973 311.2156  48.8740 15.26984309138338\r\n",
  "FORMOSAT-8A             \r\n1 66666U 25276A   26180.14067946  .00001623  00000+0  13278-3 0  9991\r\n2 66666  97.6547 254.2057 0003645 194.9887 165.1230 15.00706086 31857\r\n",
  "LILIUM-2                \r\n1 66679U 25276P   26179.90711145  .00002732  00000+0  13752-3 0  9993\r\n2 66679  97.4155 252.7157 0005181 340.8261  19.2778 15.18030252 32179\r\n",
  "BLACK KITE-1            \r\n1 66741U 25276CD  26180.54897315  .00008014  00000+0  36689-3 0  9992\r\n2 66741  97.4247 254.0900 0004217 315.4368  44.6528 15.20759618 29603\r\n",
  "T.MICROSAT-1            \r\n1 66766U 25276DE  26179.65590029  .00005238  00000+0  23978-3 0  9993\r\n2 66766  97.4164 253.2042 0002124 114.9917 245.1539 15.20933689 32182\r\n",
  "LILIUM-3                \r\n1 66770U 25276DJ  26180.14378593  .00003287  00000+0  15773-3 0  9990\r\n2 66770  97.4244 253.7046 0001896 160.9064 199.2242 15.19568538 32246\r\n",
  "T.MICROSAT-2            \r\n1 68433U 26067T   26180.39183897  .00004663  00000+0  23584-3 0  9993\r\n2 68433  97.4571 138.5791 0006694  36.4912 323.6776 15.17509118 13784\r\n",
  "PARUS-6U1               \r\n1 68456U 26067AS  26180.45264021  .00005282  00000+0  26566-3 0  9995\r\n2 68456  97.4557 138.6283 0006576  39.0688 321.1020 15.17642464 13796\r\n",
  "BLACK KITE-2            \r\n1 68474U 26067BL  26180.41553823  .00002474  00000+0  24565-3 0  9999\r\n2 68474  97.7549 138.5232 0002030 155.6033 204.5282 14.92634174 13552\r\n",
  "PEARL-1B                \r\n1 68980U 26100A   26180.52982391  .00002487  00000+0  25952-3 0  9992\r\n2 68980  97.7357  77.6508 0008856 103.3032 256.9174 14.90610647  8520\r\n",
  "PEARL-1A                \r\n1 68990U 26100L   26179.64125307  .00001585  00000+0  16585-3 0  9990\r\n2 68990  97.7304  76.7862 0006661 117.1401 243.0498 14.91010800  8400\r\n"
]